NORAD_CAT_ID,OBJECT_NAME,OBJECT_TYPE,EPOCH,MEAN_MOTION,ECCENTRICITY,INCLINATION,RA_OF_ASC_NODE,ARG_OF_PERICENTER,MEAN_ANOMALY,BSTAR,MEAN_MOTION_DOT,MEAN_MOTION_DDOT,TLE_LINE0,TLE_LINE1,TLE_LINE2,SEMIMAJOR_AXIS,PERIOD,APOGEE,PERIGEE,DECAYED
54188.0,STARLINK-5238,PAYLOAD,2023-05-08 19:32:34,15.08851353,0.000108,53.217,324.5072,87.3865,272.7251,-2.9592e-05,-7.59e-06,0.0,0 STARLINK-5238,1 54188U 22141AH  23128.81428345 -.00000759  00000-0 -29592-4 0  9991,2 54188  53.2170 324.5072 0001080  87.3865 272.7251 15.08851353 29843,6917.846,95.437,540.458,538.964,0.0
54188.0,STARLINK-5238,PAYLOAD,2023-05-09 19:23:21,15.08843967,0.0001021,53.2167,320.0457,85.8907,274.2202,0.00012505,1.703e-05,0.0,0 STARLINK-5238,1 54188U 22141AH  23129.80788321  .00001703  00000-0  12505-3 0  9997,2 54188  53.2167 320.0457 0001021  85.8907 274.2202 15.08843967 29768,6917.868,95.437,540.44,539.027,0.0
54188.0,STARLINK-5238,PAYLOAD,2023-05-10 19:14:08,15.08842577,9.51e-05,53.2167,315.5855,83.4258,276.6842,6.0376e-05,6.73e-06,0.0,0 STARLINK-5238,1 54188U 22141AH  23130.80148679  .00000673  00000-0  60376-4 0  9990,2 54188  53.2167 315.5855 0000951  83.4258 276.6842 15.08842577 30149,6917.873,95.437,540.395,539.08,0.0
54188.0,STARLINK-5238,PAYLOAD,2023-05-11 11:08:00,15.08838267,0.0001115,53.2152,312.6154,106.2846,253.8268,-2.8816e-05,-7.46e-06,0.0,0 STARLINK-5238,1 54188U 22141AH  23131.46389212 -.00000746  00000-0 -28816-4 0  9999,2 54188  53.2152 312.6154 0001115 106.2846 253.8268 15.08838267 30244,6917.886,95.438,540.522,538.979,0.0
54188.0,STARLINK-5238,PAYLOAD,2023-05-11 19:04:56,15.08794979,0.0001352,53.2146,311.1304,93.2664,266.8483,0.00061517,9.504e-05,0.0,0 STARLINK-5238,1 54188U 22141AH  23131.79510054  .00009504  00000-0  61517-3 0  9998,2 54188  53.2146 311.1304 0001352  93.2664 266.8483 15.08794979 30293,6918.018,95.44,540.818,538.948,0.0
54188.0,STARLINK-5238,PAYLOAD,2023-05-12 04:37:14,15.08834892,9.82e-05,53.2154,309.3466,101.8693,258.2409,2.5711e-05,1.21e-06,0.0,0 STARLINK-5238,1 54188U 22141AH  23132.19253452  .00000121  00000-0  25711-4 0  9992,2 54188  53.2154 309.3466 0000982 101.8693 258.2409 15.08834892 30355,6917.896,95.438,540.44,539.082,0.0
54188.0,STARLINK-5238,PAYLOAD,2023-05-12 17:20:20,15.08836397,9.36e-05,53.2156,306.9649,94.0766,266.0333,3.0689e-05,2.01e-06,0.0,0 STARLINK-5238,1 54188U 22141AH  23132.72245527  .00000201  00000-0  30689-4 0  9994,2 54188  53.2156 306.9649 0000936  94.0766 266.0333 15.08836397 30205,6917.891,95.438,540.404,539.109,0.0
54188.0,STARLINK-5238,PAYLOAD,2023-05-13 04:28:01,15.08843764,9.46e-05,53.216,304.8828,90.8065,269.3036,8.3777e-05,1.046e-05,0.0,0 STARLINK-5238,1 54188U 22141AH  23133.18612908  .00001046  00000-0  83777-4 0  9990,2 54188  53.2160 304.8828 0000946  90.8065 269.3036 15.08843764 30508,6917.869,95.437,540.388,539.079,0.0
54188.0,STARLINK-5238,PAYLOAD,2023-05-13 18:46:30,15.08839439,0.0001042,53.2159,302.2074,92.0253,268.0858,8.5113e-05,1.067e-05,0.0,0 STARLINK-5238,1 54188U 22141AH  23133.78229297  .00001067  00000-0  85113-4 0  9990,2 54188  53.2159 302.2074 0001042  92.0253 268.0858 15.08839439 30593,6917.882,95.438,540.468,539.026,0.0
54188.0,STARLINK-5238,PAYLOAD,2023-05-14 04:18:49,15.08838446,0.0001052,53.2162,300.4222,85.3805,274.7307,7.6482e-05,9.3e-06,0.0,0 STARLINK-5238,1 54188U 22141AH  23134.17973437  .00000930  00000-0  76482-4 0  9993,2 54188  53.2162 300.4222 0001052  85.3805 274.7307 15.08838446 30423,6917.885,95.438,540.478,539.022,0.0
54188.0,STARLINK-5238,PAYLOAD,2023-05-14 18:37:17,15.08839599,0.0001126,53.2162,297.7454,81.3825,278.7295,1.8005e-05,-1e-08,0.0,0 STARLINK-5238,1 54188U 22141AH  23134.77589671 -.00000001  00000-0  18005-4 0  9999,2 54188  53.2162 297.7454 0001126  81.3825 278.7295 15.08839599 30518,6917.882,95.438,540.526,538.968,0.0
54188.0,STARLINK-5238,PAYLOAD,2023-05-15 10:31:08,15.08839043,0.00011,53.2159,294.7731,80.7,279.4116,5.9005e-05,6.51e-06,0.0,0 STARLINK-5238,1 54188U 22141AH  23135.43829543  .00000651  00000-0  59005-4 0  9993,2 54188  53.2159 294.7731 0001100  80.7000 279.4116 15.08839043 30849,6917.883,95.438,540.509,538.987,0.0
54188.0,STARLINK-5238,PAYLOAD,2023-05-15 16:52:41,15.08842748,0.0001163,53.2159,293.5818,86.382,273.7305,8.036e-05,9.91e-06,0.0,0 STARLINK-5238,1 54188U 22141AH  23135.70325240  .00000991  00000-0  80360-4 0  9993,2 54188  53.2159 293.5818 0001163  86.3820 273.7305 15.08842748 30655,6917.872,95.437,540.542,538.932,0.0
54188.0,STARLINK-5238,PAYLOAD,2023-05-16 13:32:42,15.08836068,0.0001046,53.2154,289.7164,84.9674,275.1437,6.6587e-05,7.72e-06,0.0,0 STARLINK-5238,1 54188U 22141AH  23136.56437684  .00000772  00000-0  66587-4 0  9996,2 54188  53.2154 289.7164 0001046  84.9674 275.1437 15.08836068 30786,6917.892,95.438,540.481,539.034,0.0
54188.0,STARLINK-5238,PAYLOAD,2023-05-16 16:43:28,15.08839403,0.0001,53.2152,289.1205,90.4783,269.6324,9.8484e-05,1.28e-05,0.0,0 STARLINK-5238,1 54188U 22141AH  23136.69685349  .00001280  00000-0  98484-4 0  9999,2 54188  53.2152 289.1205 0001000  90.4783 269.6324 15.08839403 31035,6917.882,95.438,540.439,539.055,0.0
54188.0,STARLINK-5238,PAYLOAD,2023-05-17 16:34:15,15.08831848,0.0001213,53.2165,284.6619,92.0889,268.0242,0.00015098,2.115e-05,0.0,0 STARLINK-5238,1 54188U 22141AH  23137.69045724  .00002115  00000-0  15098-3 0  9994,2 54188  53.2165 284.6619 0001213  92.0889 268.0242 15.08831848 31182,6917.905,95.438,540.609,538.931,0.0
54188.0,STARLINK-5238,PAYLOAD,2023-05-18 13:14:16,15.08835828,0.0001136,53.2165,280.7971,92.5661,267.5461,-4.343e-06,-3.57e-06,0.0,0 STARLINK-5238,1 54188U 22141AH  23138.55158049 -.00000357  00000-0 -43430-5 0  9996,2 54188  53.2165 280.7971 0001136  92.5661 267.5461 15.08835828 31085,6917.893,95.438,540.544,538.972,0.0
54188.0,STARLINK-5238,PAYLOAD,2023-05-18 18:00:25,15.08840771,0.0001052,53.2154,279.9023,90.8406,269.2706,2.1392e-05,5.3e-07,0.0,0 STARLINK-5238,1 54188U 22141AH  23138.75029615  .00000053  00000-0  21392-4 0  9997,2 54188  53.2154 279.9023 0001052  90.8406 269.2706 15.08840771 31114,6917.878,95.438,540.471,539.015,0.0
54188.0,STARLINK-5238,PAYLOAD,2023-05-19 01:57:21,15.08837132,0.0001069,53.2153,278.4155,88.0553,272.0561,5.3775e-05,5.68e-06,0.0,0 STARLINK-5238,1 54188U 22141AH  23139.08149794  .00000568  00000-0  53775-4 0  9996,2 54188  53.2153 278.4155 0001069  88.0553 272.0561 15.08837132 31391,6917.889,95.438,540.494,539.015,0.0
54188.0,STARLINK-5238,PAYLOAD,2023-05-19 16:15:50,15.08836287,0.0001116,53.2151,275.7398,95.3834,264.7285,-1.3894e-05,-5.09e-06,0.0,0 STARLINK-5238,1 54188U 22141AH  23139.67766243 -.00000509  00000-0 -13894-4 0  9990,2 54188  53.2151 275.7398 0001116  95.3834 264.7285 15.08836287 31250,6917.892,95.438,540.529,538.985,0.0
54188.0,STARLINK-5238,PAYLOAD,2023-05-20 16:06:35,15.08853514,0.0001105,53.2154,271.2792,94.2459,265.8659,0.00013645,1.885e-05,0.0,0 STARLINK-5238,1 54188U 22141AH  23140.67124750  .00001885  00000-0  13645-3 0  9992,2 54188  53.2154 271.2792 0001105  94.2459 265.8659 15.08853514 31632,6917.839,95.437,540.469,538.94,0.0
54188.0,STARLINK-5238,PAYLOAD,2023-05-20 19:17:21,15.08857486,0.0001163,53.2151,270.6837,107.3089,252.8031,0.00016412,2.326e-05,0.0,0 STARLINK-5238,1 54188U 22141AH  23140.80372191  .00002326  00000-0  16412-3 0  9997,2 54188  53.2151 270.6837 0001163 107.3089 252.8031 15.08857486 31420,6917.827,95.436,540.496,538.887,0.0
54188.0,STARLINK-5238,PAYLOAD,2023-05-21 01:38:56,15.08830491,0.0001063,53.2152,269.495,100.57,259.5412,-5.1268e-05,-1.103e-05,0.0,0 STARLINK-5238,1 54188U 22141AH  23141.06870541 -.00001103  00000-0 -51268-4 0  9991,2 54188  53.2152 269.4950 0001063 100.5700 259.5412 15.08830491 31690,6917.909,95.438,540.51,539.039,0.0
54188.0,STARLINK-5238,PAYLOAD,2023-05-21 11:11:15,15.08827173,0.0001122,53.2154,267.7106,95.0232,265.0888,-2.1436e-05,-6.29e-06,0.0,0 STARLINK-5238,1 54188U 22141AH  23141.46614957 -.00000629  00000-0 -21436-4 0  9998,2 54188  53.2154 267.7106 0001122  95.0232 265.0888 15.08827173 31524,6917.92,95.438,540.561,539.008,0.0
54188.0,STARLINK-5238,PAYLOAD,2023-05-21 17:32:47,15.08832617,0.0001035,53.2155,266.5216,96.8533,263.2577,-1.803e-05,-5.75e-06,0.0,0 STARLINK-5238,1 54188U 22141AH  23141.73110733 -.00000575  00000-0 -18030-4 0  9997,2 54188  53.2155 266.5216 0001035  96.8533 263.2577 15.08832617 31568,6917.903,95.438,540.484,539.052,0.0
54188.0,STARLINK-5238,PAYLOAD,2023-05-22 07:51:15,15.088369,0.0001171,53.2158,263.8442,91.1273,268.9853,1.5082e-05,-4.8e-07,0.0,0 STARLINK-5238,1 54188U 22141AH  23142.32726632 -.00000048  00000-0  15082-4 0  9992,2 54188  53.2158 263.8442 0001171  91.1273 268.9853 15.08836900 31885,6917.89,95.438,540.565,538.945,0.0
54188.0,STARLINK-5238,PAYLOAD,2023-05-22 14:12:47,15.08841277,0.0001037,53.2158,262.6556,90.4834,269.6277,5.195e-05,5.39e-06,0.0,0 STARLINK-5238,1 54188U 22141AH  23142.59222221  .00000539  00000-0  51950-4 0  9994,2 54188  53.2158 262.6556 0001037  90.4834 269.6277 15.08841277 31694,6917.876,95.437,540.459,539.024,0.0
54188.0,STARLINK-5238,PAYLOAD,2023-05-22 17:23:33,15.08852386,0.0001079,53.2158,262.0594,99.7692,260.3422,-2.4767e-06,-3.27e-06,0.0,0 STARLINK-5238,1 54188U 22141AH  23142.72469639 -.00000327  00000-0 -24767-5 0  9999,2 54188  53.2158 262.0594 0001079  99.7692 260.3422 15.08852386 31941,6917.843,95.437,540.454,538.961,0.0
54188.0,STARLINK-5238,PAYLOAD,2023-05-23 12:28:12,15.08831856,0.0001111,53.2154,258.4918,93.5892,266.5227,0.0001139,1.525e-05,0.0,0 STARLINK-5238,1 54188U 22141AH  23143.51958737  .00001525  00000-0  11390-3 0  9994,2 54188  53.2154 258.4918 0001111  93.5892 266.5227 15.08831856 32061,6917.905,95.438,540.539,539.002,0.0
54188.0,STARLINK-5238,PAYLOAD,2023-05-24 13:54:22,15.08843236,0.0001334,53.2167,253.7328,107.5862,252.5276,2.7595e-05,1.51e-06,0.0,0 STARLINK-5238,1 54188U 22141AH  23144.57942352  .00000151  00000-0  27595-4 0  9996,2 54188  53.2167 253.7328 0001334 107.5862 252.5276 15.08843236 32220,6917.87,95.437,540.658,538.813,0.0
